start=new Date('2021-11-21T00:00:00.000Z').valueOf();
sats=[{"EPHEMERIS_TYPE":"0","OBJECT_NAME":"STARLINK-1710","ARG_OF_PERICENTER":"72.8386","MEAN_MOTION_DOT":"0.00001206","SEMIMAJOR_AXIS":"6925.348","MEAN_MOTION":"15.06400282","GP_ID":"190112550","DECAY_DATE":null,"CLASSIFICATION_TYPE":"U","PERIOD":"95.592","BSTAR":"0.00009985100000","SITE":"AFETR","TLE_LINE1":"1 46330U 20062F   21324.37593498  .00001206  00000-0  99851-4 0  9991","MEAN_ELEMENT_THEORY":"SGP4","FILE":"3219752","APOAPSIS":"548.481","ELEMENT_SET_NO":"999","CENTER_NAME":"EARTH","INCLINATION":"53.0537","MEAN_MOTION_DDOT":"0.0000000000000","NORAD_CAT_ID":"46330","ECCENTRICITY":"0.00018310","TIME_SYSTEM":"UTC","RA_OF_ASC_NODE":"206.0312","RCS_SIZE":"LARGE","OBJECT_TYPE":"PAYLOAD","EPOCH":"2021-11-20T09:01:20.782272","TLE_LINE2":"2 46330  53.0537 206.0312 0001831  72.8386 287.2803 15.06400282 67913","LAUNCH_DATE":"2020-09-03","PERIAPSIS":"545.945","COUNTRY_CODE":"US","MEAN_ANOMALY":"287.2803","REF_FRAME":"TEME","REV_AT_EPOCH":"6791","OBJECT_ID":"2020-062F"},{"MEAN_ANOMALY":"288.4702","REF_FRAME":"TEME","REV_AT_EPOCH":"6759","OBJECT_ID":"2020-062G","EPOCH":"2021-11-20T03:29:37.280832","TLE_LINE2":"2 46331  53.0545 227.0757 0002065  71.6511 288.4702 15.06392001 67590","LAUNCH_DATE":"2020-09-03","PERIAPSIS":"545.808","COUNTRY_CODE":"US","RA_OF_ASC_NODE":"227.0757","RCS_SIZE":"LARGE","OBJECT_TYPE":"PAYLOAD","NORAD_CAT_ID":"46331","ECCENTRICITY":"0.00020650","TIME_SYSTEM":"UTC","APOAPSIS":"548.668","FILE":"3220049","ELEMENT_SET_NO":"999","CENTER_NAME":"EARTH","INCLINATION":"53.0545","MEAN_MOTION_DDOT":"0.0000000000000","BSTAR":"-0.00001545800000","SITE":"AFETR","TLE_LINE1":"1 46331U 20062G   21324.14557038 -.00000512  00000-0 -15458-4 0  9999","MEAN_ELEMENT_THEORY":"SGP4","GP_ID":"190142722","DECAY_DATE":null,"CLASSIFICATION_TYPE":"U","PERIOD":"95.593","EPHEMERIS_TYPE":"0","OBJECT_NAME":"STARLINK-1719","ARG_OF_PERICENTER":"71.6511","MEAN_MOTION_DOT":"-0.00000512","SEMIMAJOR_AXIS":"6925.373","MEAN_MOTION":"15.06392001"},{"OBJECT_TYPE":"PAYLOAD","RA_OF_ASC_NODE":"225.8205","RCS_SIZE":"LARGE","TIME_SYSTEM":"UTC","NORAD_CAT_ID":"46332","ECCENTRICITY":"0.00017620","REV_AT_EPOCH":"6763","OBJECT_ID":"2020-062H","REF_FRAME":"TEME","MEAN_ANOMALY":"290.6856","LAUNCH_DATE":"2020-09-03","COUNTRY_CODE":"US","PERIAPSIS":"546.023","EPOCH":"2021-11-20T10:07:42.297312","TLE_LINE2":"2 46332  53.0534 225.8205 0001762  69.4322 290.6856 15.06390175 67631","CLASSIFICATION_TYPE":"U","PERIOD":"95.593","GP_ID":"190140971","DECAY_DATE":null,"SEMIMAJOR_AXIS":"6925.379","MEAN_MOTION_DOT":"-0.00000264","MEAN_MOTION":"15.06390175","EPHEMERIS_TYPE":"0","ARG_OF_PERICENTER":"69.4322","OBJECT_NAME":"STARLINK-1721","MEAN_MOTION_DDOT":"0.0000000000000","ELEMENT_SET_NO":"999","CENTER_NAME":"EARTH","APOAPSIS":"548.464","FILE":"3220049","INCLINATION":"53.0534","MEAN_ELEMENT_THEORY":"SGP4","BSTAR":"0.00000116330000","TLE_LINE1":"1 46332U 20062H   21324.42201733 -.00000264  00000-0  11633-5 0  9994","SITE":"AFETR"},{"PERIOD":"95.592","CLASSIFICATION_TYPE":"U","DECAY_DATE":null,"GP_ID":"190141221","MEAN_MOTION":"15.06403779","MEAN_MOTION_DOT":"0.00000214","SEMIMAJOR_AXIS":"6925.337","OBJECT_NAME":"STARLINK-1723","ARG_OF_PERICENTER":"65.8506","EPHEMERIS_TYPE":"0","MEAN_MOTION_DDOT":"0.0000000000000","INCLINATION":"53.0544","FILE":"3220049","APOAPSIS":"548.707","ELEMENT_SET_NO":"999","CENTER_NAME":"EARTH","MEAN_ELEMENT_THEORY":"SGP4","SITE":"AFETR","TLE_LINE1":"1 46333U 20062J   21324.43675020  .00000214  00000-0  33293-4 0  9999","BSTAR":"0.00003329300000","OBJECT_TYPE":"PAYLOAD","RCS_SIZE":"LARGE","RA_OF_ASC_NODE":"225.7665","TIME_SYSTEM":"UTC","ECCENTRICITY":"0.00021730","NORAD_CAT_ID":"46333","OBJECT_ID":"2020-062J","REV_AT_EPOCH":"6763","MEAN_ANOMALY":"294.2710","REF_FRAME":"TEME","PERIAPSIS":"545.697","COUNTRY_CODE":"US","LAUNCH_DATE":"2020-09-03","TLE_LINE2":"2 46333  53.0544 225.7665 0002173  65.8506 294.2710 15.06403779 67637","EPOCH":"2021-11-20T10:28:55.217280"},{"OBJECT_TYPE":"PAYLOAD","RCS_SIZE":"LARGE","RA_OF_ASC_NODE":"205.8642","TIME_SYSTEM":"UTC","ECCENTRICITY":"0.00016660","NORAD_CAT_ID":"46334","OBJECT_ID":"2020-062K","REV_AT_EPOCH":"6791","MEAN_ANOMALY":"282.7794","REF_FRAME":"TEME","PERIAPSIS":"546.065","COUNTRY_CODE":"US","LAUNCH_DATE":"2020-09-03","TLE_LINE2":"2 46334  53.0540 205.8642 0001666  77.3382 282.7794 15.06398336 67911","EPOCH":"2021-11-20T09:53:03.427872","PERIOD":"95.592","CLASSIFICATION_TYPE":"U","DECAY_DATE":null,"GP_ID":"190142472","MEAN_MOTION":"15.06398336","MEAN_MOTION_DOT":"0.00001598","SEMIMAJOR_AXIS":"6925.354","OBJECT_NAME":"STARLINK-1725","ARG_OF_PERICENTER":"77.3382","EPHEMERIS_TYPE":"0","MEAN_MOTION_DDOT":"0.0000000000000","INCLINATION":"53.0540","APOAPSIS":"548.372","FILE":"3220049","ELEMENT_SET_NO":"999","CENTER_NAME":"EARTH","MEAN_ELEMENT_THEORY":"SGP4","SITE":"AFETR","TLE_LINE1":"1 46334U 20062K   21324.41184523  .00001598  00000-0  12617-3 0  9993","BSTAR":"0.00012617000000"},{"REF_FRAME":"TEME","MEAN_ANOMALY":"295.1647","OBJECT_ID":"2020-062L","REV_AT_EPOCH":"6764","TLE_LINE2":"2 46335  53.0533 225.6200 0002064  64.9556 295.1647 15.06401052 67647","EPOCH":"2021-11-20T11:11:22.889760","COUNTRY_CODE":"US","PERIAPSIS":"545.781","LAUNCH_DATE":"2020-09-03","RCS_SIZE":"LARGE","RA_OF_ASC_NODE":"225.6200","OBJECT_TYPE":"PAYLOAD","ECCENTRICITY":"0.00020640","NORAD_CAT_ID":"46335","TIME_SYSTEM":"UTC","INCLINATION":"53.0533","ELEMENT_SET_NO":"999","CENTER_NAME":"EARTH","FILE":"3220049","APOAPSIS":"548.640","MEAN_MOTION_DDOT":"0.0000000000000","TLE_LINE1":"1 46335U 20062L   21324.46623715  .00002527  00000-0  18851-3 0  9999","SITE":"AFETR","BSTAR":"0.00018851000000","MEAN_ELEMENT_THEORY":"SGP4","DECAY_DATE":null,"GP_ID":"190142223","PERIOD":"95.592","CLASSIFICATION_TYPE":"U","ARG_OF_PERICENTER":"64.9556","OBJECT_NAME":"STARLINK-1727","EPHEMERIS_TYPE":"0","MEAN_MOTION":"15.06401052","SEMIMAJOR_AXIS":"6925.345","MEAN_MOTION_DOT":"0.00002527"},{"MEAN_MOTION_DOT":"0.00000207","SEMIMAJOR_AXIS":"6925.397","MEAN_MOTION":"15.06384104","EPHEMERIS_TYPE":"0","OBJECT_NAME":"STARLINK-1738","ARG_OF_PERICENTER":"69.8520","CLASSIFICATION_TYPE":"U","PERIOD":"95.593","GP_ID":"190141471","DECAY_DATE":null,"MEAN_ELEMENT_THEORY":"SGP4","BSTAR":"0.00003279200000","SITE":"AFETR","TLE_LINE1":"1 46336U 20062M   21324.39069038  .00000207  00000-0  32792-4 0  9998","MEAN_MOTION_DDOT":"0.0000000000000","APOAPSIS":"548.606","FILE":"3220049","ELEMENT_SET_NO":"999","CENTER_NAME":"EARTH","INCLINATION":"53.0545","TIME_SYSTEM":"UTC","NORAD_CAT_ID":"46336","ECCENTRICITY":"0.00019410","OBJECT_TYPE":"PAYLOAD","RA_OF_ASC_NODE":"205.9725","RCS_SIZE":"LARGE","LAUNCH_DATE":"2020-09-03","PERIAPSIS":"545.918","COUNTRY_CODE":"US","EPOCH":"2021-11-20T09:22:35.648832","TLE_LINE2":"2 46336  53.0545 205.9725 0001941  69.8520 290.2677 15.06384104 67908","REV_AT_EPOCH":"6790","OBJECT_ID":"2020-062M","MEAN_ANOMALY":"290.2677","REF_FRAME":"TEME"},{"INCLINATION":"53.0523","APOAPSIS":"548.676","FILE":"3220049","CENTER_NAME":"EARTH","ELEMENT_SET_NO":"999","MEAN_MOTION_DDOT":"0.0000000000000","SITE":"AFETR","TLE_LINE1":"1 46337U 20062N   21324.40542988 -.00000021  00000-0  17519-4 0  9996","BSTAR":"0.00001751900000","MEAN_ELEMENT_THEORY":"SGP4","DECAY_DATE":null,"GP_ID":"190141721","PERIOD":"95.593","CLASSIFICATION_TYPE":"U","OBJECT_NAME":"STARLINK-1750","ARG_OF_PERICENTER":"71.5899","EPHEMERIS_TYPE":"0","MEAN_MOTION":"15.06391126","MEAN_MOTION_DOT":"-0.00000021","SEMIMAJOR_AXIS":"6925.376","MEAN_ANOMALY":"288.5315","REF_FRAME":"TEME","OBJECT_ID":"2020-062N","REV_AT_EPOCH":"6791","TLE_LINE2":"2 46337  53.0523 205.8944 0002072  71.5899 288.5315 15.06391126 67914","EPOCH":"2021-11-20T09:43:49.141632","PERIAPSIS":"545.806","COUNTRY_CODE":"US","LAUNCH_DATE":"2020-09-03","RCS_SIZE":"LARGE","RA_OF_ASC_NODE":"205.8944","OBJECT_TYPE":"PAYLOAD","ECCENTRICITY":"0.00020720","NORAD_CAT_ID":"46337","TIME_SYSTEM":"UTC"},{"MEAN_MOTION_DDOT":"0.0000000000000","ELEMENT_SET_NO":"999","CENTER_NAME":"EARTH","APOAPSIS":"548.356","FILE":"3220049","INCLINATION":"53.0537","MEAN_ELEMENT_THEORY":"SGP4","BSTAR":"0.00006002700000","TLE_LINE1":"1 46338U 20062P   21324.45518795  .00000613  00000-0  60027-4 0  9999","SITE":"AFETR","CLASSIFICATION_TYPE":"U","PERIOD":"95.592","GP_ID":"190141973","DECAY_DATE":null,"SEMIMAJOR_AXIS":"6925.352","MEAN_MOTION_DOT":"0.00000613","MEAN_MOTION":"15.06398966","EPHEMERIS_TYPE":"0","ARG_OF_PERICENTER":"67.9682","OBJECT_NAME":"STARLINK-1752","REV_AT_EPOCH":"6763","OBJECT_ID":"2020-062P","REF_FRAME":"TEME","MEAN_ANOMALY":"292.1481","LAUNCH_DATE":"2020-09-03","COUNTRY_CODE":"US","PERIAPSIS":"546.078","EPOCH":"2021-11-20T10:55:28.238880","TLE_LINE2":"2 46338  53.0537 225.6648 0001645  67.9682 292.1481 15.06398966 67638","OBJECT_TYPE":"PAYLOAD","RA_OF_ASC_NODE":"225.6648","RCS_SIZE":"LARGE","TIME_SYSTEM":"UTC","NORAD_CAT_ID":"46338","ECCENTRICITY":"0.00016450"},{"NORAD_CAT_ID":"46339","ECCENTRICITY":"0.00017100","TIME_SYSTEM":"UTC","RA_OF_ASC_NODE":"163.7969","RCS_SIZE":"LARGE","OBJECT_TYPE":"PAYLOAD","EPOCH":"2021-11-20T06:36:00.584928","TLE_LINE2":"2 46339  53.0479 163.7969 0001710  61.4165 298.7031 15.89575326 68496","LAUNCH_DATE":"2020-09-03","COUNTRY_CODE":"US","PERIAPSIS":"302.332","REF_FRAME":"TEME","MEAN_ANOMALY":"298.7031","REV_AT_EPOCH":"6849","OBJECT_ID":"2020-062Q","EPHEMERIS_TYPE":"0","ARG_OF_PERICENTER":"61.4165","OBJECT_NAME":"STARLINK-1757","SEMIMAJOR_AXIS":"6681.610","MEAN_MOTION_DOT":"0.00077221","MEAN_MOTION":"15.89575326","GP_ID":"190142723","DECAY_DATE":null,"CLASSIFICATION_TYPE":"U","PERIOD":"90.590","BSTAR":"0.00025747000000","TLE_LINE1":"1 46339U 20062Q   21324.27500677  .00077221  00000-0  25747-3 0  9998","SITE":"AFETR","MEAN_ELEMENT_THEORY":"SGP4","ELEMENT_SET_NO":"999","CENTER_NAME":"EARTH","FILE":"3220049","APOAPSIS":"304.617","INCLINATION":"53.0479","MEAN_MOTION_DDOT":"0.0000000000000"}];
